[{"OBJECT_NAME":"ALOS (DAICHI)","OBJECT_ID":"2006-002A","EPOCH":"2026-04-12T03:09:37.272096","MEAN_MOTION":14.69915088,"ECCENTRICITY":0.0001452,"INCLINATION":98.1269,"RA_OF_ASC_NODE":57.9339,"ARG_OF_PERICENTER":114.3703,"MEAN_ANOMALY":245.7655,"EPHEMERIS_TYPE":0,"CLASSIFICATION_TYPE":"U","NORAD_CAT_ID":28931,"ELEMENT_SET_NO":999,"REV_AT_EPOCH":7839,"BSTAR":0.00015809382,"MEAN_MOTION_DOT":8.97e-6,"MEAN_MOTION_DDOT":0},{"OBJECT_NAME":"H-2A R/B","OBJECT_ID":"2006-002B","EPOCH":"2026-04-11T20:35:23.033472","MEAN_MOTION":15.17200334,"ECCENTRICITY":0.0052592,"INCLINATION":98.2471,"RA_OF_ASC_NODE":251.7662,"ARG_OF_PERICENTER":128.3239,"MEAN_ANOMALY":232.2737,"EPHEMERIS_TYPE":0,"CLASSIFICATION_TYPE":"U","NORAD_CAT_ID":28932,"ELEMENT_SET_NO":999,"REV_AT_EPOCH":9946,"BSTAR":0.00034352544,"MEAN_MOTION_DOT":6.994e-5,"MEAN_MOTION_DDOT":0},{"OBJECT_NAME":"RESURS-DK 1","OBJECT_ID":"2006-021A","EPOCH":"2026-04-12T02:58:38.043552","MEAN_MOTION":15.129416,"ECCENTRICITY":0.00023342,"INCLINATION":69.9302,"RA_OF_ASC_NODE":150.5283,"ARG_OF_PERICENTER":14.5993,"MEAN_ANOMALY":345.524,"EPHEMERIS_TYPE":0,"CLASSIFICATION_TYPE":"U","NORAD_CAT_ID":29228,"ELEMENT_SET_NO":999,"REV_AT_EPOCH":9258,"BSTAR":8.5423655e-5,"MEAN_MOTION_DOT":1.401e-5,"MEAN_MOTION_DDOT":0},{"OBJECT_NAME":"CZ-4B R/B","OBJECT_ID":"2006-046C","EPOCH":"2026-04-12T02:47:02.109696","MEAN_MOTION":15.17259474,"ECCENTRICITY":0.00339782,"INCLINATION":97.5534,"RA_OF_ASC_NODE":146.9307,"ARG_OF_PERICENTER":149.4696,"MEAN_ANOMALY":210.8524,"EPHEMERIS_TYPE":0,"CLASSIFICATION_TYPE":"U","NORAD_CAT_ID":29507,"ELEMENT_SET_NO":999,"REV_AT_EPOCH":6511,"BSTAR":0.00017807376,"MEAN_MOTION_DOT":3.526e-5,"MEAN_MOTION_DDOT":0},{"OBJECT_NAME":"CZ-2C R/B","OBJECT_ID":"2007-010B","EPOCH":"2026-04-12T06:14:42.191520","MEAN_MOTION":14.20259095,"ECCENTRICITY":0.00587621,"INCLINATION":98.4016,"RA_OF_ASC_NODE":213.8622,"ARG_OF_PERICENTER":195.4951,"MEAN_ANOMALY":164.4429,"EPHEMERIS_TYPE":0,"CLASSIFICATION_TYPE":"U","NORAD_CAT_ID":31114,"ELEMENT_SET_NO":999,"REV_AT_EPOCH":98448,"BSTAR":6.1807893e-5,"MEAN_MOTION_DOT":9.3e-7,"MEAN_MOTION_DDOT":0},{"OBJECT_NAME":"COSMO-SKYMED 1","OBJECT_ID":"2007-023A","EPOCH":"2026-04-12T07:02:24.192384","MEAN_MOTION":14.96792691,"ECCENTRICITY":0.00016403,"INCLINATION":97.8889,"RA_OF_ASC_NODE":293.6017,"ARG_OF_PERICENTER":88.4634,"MEAN_ANOMALY":271.6775,"EPHEMERIS_TYPE":0,"CLASSIFICATION_TYPE":"U","NORAD_CAT_ID":31598,"ELEMENT_SET_NO":999,"REV_AT_EPOCH":1993,"BSTAR":0.00016200312,"MEAN_MOTION_DOT":1.794e-5,"MEAN_MOTION_DDOT":0},{"OBJECT_NAME":"COSMOS 2428","OBJECT_ID":"2007-029A","EPOCH":"2026-04-12T00:29:51.504864","MEAN_MOTION":14.12948654,"ECCENTRICITY":0.00095966,"INCLINATION":70.9406,"RA_OF_ASC_NODE":133.3863,"ARG_OF_PERICENTER":241.8578,"MEAN_ANOMALY":118.1574,"EPHEMERIS_TYPE":0,"CLASSIFICATION_TYPE":"U","NORAD_CAT_ID":31792,"ELEMENT_SET_NO":999,"REV_AT_EPOCH":96880,"BSTAR":-2.8727527e-5,"MEAN_MOTION_DOT":-1.02e-6,"MEAN_MOTION_DDOT":0},{"OBJECT_NAME":"SL-16 R/B","OBJECT_ID":"2007-029B","EPOCH":"2026-04-12T06:40:24.091104","MEAN_MOTION":14.14841979,"ECCENTRICITY":0.00028355,"INCLINATION":70.9728,"RA_OF_ASC_NODE":101.7788,"ARG_OF_PERICENTER":273.4723,"MEAN_ANOMALY":98.2656,"EPHEMERIS_TYPE":0,"CLASSIFICATION_TYPE":"U","NORAD_CAT_ID":31793,"ELEMENT_SET_NO":999,"REV_AT_EPOCH":97012,"BSTAR":-8.2425074e-5,"MEAN_MOTION_DOT":-2.07e-6,"MEAN_MOTION_DDOT":0},{"OBJECT_NAME":"KORONAS-FOTON","OBJECT_ID":"2009-003A","EPOCH":"2026-04-11T22:49:41.742912","MEAN_MOTION":15.44294094,"ECCENTRICITY":0.00109811,"INCLINATION":82.4289,"RA_OF_ASC_NODE":241.2702,"ARG_OF_PERICENTER":40.5391,"MEAN_ANOMALY":319.6672,"EPHEMERIS_TYPE":0,"CLASSIFICATION_TYPE":"U","NORAD_CAT_ID":33504,"ELEMENT_SET_NO":999,"REV_AT_EPOCH":95087,"BSTAR":0.00024481746,"MEAN_MOTION_DOT":0.0001133,"MEAN_MOTION_DDOT":0},{"OBJECT_NAME":"CZ-2C R/B","OBJECT_ID":"2011-030B","EPOCH":"2026-04-12T08:05:26.617632","MEAN_MOTION":14.8133556,"ECCENTRICITY":0.00510897,"INCLINATION":97.8599,"RA_OF_ASC_NODE":58.9427,"ARG_OF_PERICENTER":240.1072,"MEAN_ANOMALY":274.7903,"EPHEMERIS_TYPE":0,"CLASSIFICATION_TYPE":"U","NORAD_CAT_ID":37731,"ELEMENT_SET_NO":999,"REV_AT_EPOCH":79507,"BSTAR":0.0001011098,"MEAN_MOTION_DOT":7.52e-6,"MEAN_MOTION_DDOT":0},{"OBJECT_NAME":"H-2A R/B","OBJECT_ID":"2012-025E","EPOCH":"2026-04-12T06:06:10.409760","MEAN_MOTION":14.95392386,"ECCENTRICITY":0.00437889,"INCLINATION":98.4772,"RA_OF_ASC_NODE":72.0058,"ARG_OF_PERICENTER":201.047,"MEAN_ANOMALY":158.8948,"EPHEMERIS_TYPE":0,"CLASSIFICATION_TYPE":"U","NORAD_CAT_ID":38341,"ELEMENT_SET_NO":999,"REV_AT_EPOCH":75323,"BSTAR":0.00018764323,"MEAN_MOTION_DOT":2.041e-5,"MEAN_MOTION_DDOT":0},{"OBJECT_NAME":"SHIJIAN-16 (SJ-16)","OBJECT_ID":"2013-057A","EPOCH":"2026-04-12T06:44:47.747616","MEAN_MOTION":14.92454957,"ECCENTRICITY":0.00156139,"INCLINATION":74.9707,"RA_OF_ASC_NODE":121.493,"ARG_OF_PERICENTER":25.761,"MEAN_ANOMALY":334.4352,"EPHEMERIS_TYPE":0,"CLASSIFICATION_TYPE":"U","NORAD_CAT_ID":39358,"ELEMENT_SET_NO":999,"REV_AT_EPOCH":67651,"BSTAR":7.6999761e-5,"MEAN_MOTION_DOT":7.62e-6,"MEAN_MOTION_DDOT":0},{"OBJECT_NAME":"SL-4 R/B","OBJECT_ID":"2014-021B","EPOCH":"2026-04-12T04:23:10.146912","MEAN_MOTION":15.40412265,"ECCENTRICITY":0.00934604,"INCLINATION":51.6066,"RA_OF_ASC_NODE":173.7356,"ARG_OF_PERICENTER":225.3667,"MEAN_ANOMALY":133.9669,"EPHEMERIS_TYPE":0,"CLASSIFICATION_TYPE":"U","NORAD_CAT_ID":39679,"ELEMENT_SET_NO":999,"REV_AT_EPOCH":66143,"BSTAR":0.00021294853,"MEAN_MOTION_DOT":9.767e-5,"MEAN_MOTION_DDOT":0},{"OBJECT_NAME":"ALOS-2","OBJECT_ID":"2014-029A","EPOCH":"2026-04-11T10:52:31.423008","MEAN_MOTION":14.79470532,"ECCENTRICITY":0.00018342,"INCLINATION":97.919,"RA_OF_ASC_NODE":199.5736,"ARG_OF_PERICENTER":90.558,"MEAN_ANOMALY":269.5842,"EPHEMERIS_TYPE":0,"CLASSIFICATION_TYPE":"U","NORAD_CAT_ID":39766,"ELEMENT_SET_NO":999,"REV_AT_EPOCH":64171,"BSTAR":3.2248839e-5,"MEAN_MOTION_DOT":1.89e-6,"MEAN_MOTION_DDOT":0},{"OBJECT_NAME":"YAOGAN-29","OBJECT_ID":"2015-069A","EPOCH":"2026-04-12T07:51:54.291744","MEAN_MOTION":14.83033886,"ECCENTRICITY":7.144e-5,"INCLINATION":98.0102,"RA_OF_ASC_NODE":130.8409,"ARG_OF_PERICENTER":159.0145,"MEAN_ANOMALY":201.1098,"EPHEMERIS_TYPE":0,"CLASSIFICATION_TYPE":"U","NORAD_CAT_ID":41038,"ELEMENT_SET_NO":999,"REV_AT_EPOCH":56086,"BSTAR":5.8542889e-5,"MEAN_MOTION_DOT":4.22e-6,"MEAN_MOTION_DDOT":0},{"OBJECT_NAME":"ASTRO-H (HITOMI)","OBJECT_ID":"2016-012A","EPOCH":"2026-04-12T06:40:09.421248","MEAN_MOTION":15.1021854,"ECCENTRICITY":0.0009612,"INCLINATION":30.9981,"RA_OF_ASC_NODE":139.7566,"ARG_OF_PERICENTER":308.8935,"MEAN_ANOMALY":51.0845,"EPHEMERIS_TYPE":0,"CLASSIFICATION_TYPE":"U","NORAD_CAT_ID":41337,"ELEMENT_SET_NO":999,"REV_AT_EPOCH":55731,"BSTAR":0.00010630819,"MEAN_MOTION_DOT":1.877e-5,"MEAN_MOTION_DDOT":0}]
