ALOS (DAICHI)           
1 28931U 06002A   26102.13168139  .00000897  00000+0  15809-3 0  9993
2 28931  98.1269  57.9339 0001452 114.3703 245.7655 14.69915088 78399
H-2A R/B                
1 28932U 06002B   26101.85790548  .00006994  00000+0  34353-3 0  9996
2 28932  98.2471 251.7662 0052592 128.3239 232.2737 15.17200334 99467
RESURS-DK 1             
1 29228U 06021A   26102.12405143  .00001401  00000+0  85424-4 0  9995
2 29228  69.9302 150.5283 0002334  14.5993 345.5240 15.12941600 92587
CZ-4B R/B               
1 29507U 06046C   26102.11599664  .00003526  00000+0  17807-3 0  9992
2 29507  97.5534 146.9307 0033978 149.4696 210.8524 15.17259474 65117
CZ-2C R/B               
1 31114U 07010B   26102.26021055  .00000093  00000+0  61808-4 0  9998
2 31114  98.4016 213.8622 0058762 195.4951 164.4429 14.20259095984486
COSMO-SKYMED 1          
1 31598U 07023A   26102.29333556  .00001794  00000+0  16200-3 0  9997
2 31598  97.8889 293.6017 0001640  88.4634 271.6775 14.96792691 19930
COSMOS 2428             
1 31792U 07029A   26102.02073501 -.00000102  00000+0 -28728-4 0  9994
2 31792  70.9406 133.3863 0009596 241.8578 118.1574 14.12948654968803
SL-16 R/B               
1 31793U 07029B   26102.27805661 -.00000207  00000+0 -82425-4 0  9992
2 31793  70.9728 101.7788 0002835 273.4723  98.2656 14.14841979970129
KORONAS-FOTON           
1 33504U 09003A   26101.95117758  .00011330  00000+0  24482-3 0  9990
2 33504  82.4289 241.2702 0010981  40.5391 319.6672 15.44294094950874
CZ-2C R/B               
1 37731U 11030B   26102.33711363  .00000752  00000+0  10111-3 0  9994
2 37731  97.8599  58.9427 0051089 240.1072 274.7903 14.81335560795070
H-2A R/B                
1 38341U 12025E   26102.25428715  .00002041  00000+0  18764-3 0  9999
2 38341  98.4772  72.0058 0043788 201.0470 158.8948 14.95392386753237
SHIJIAN-16 (SJ-16)      
1 39358U 13057A   26102.28110819  .00000762  00000+0  77000-4 0  9997
2 39358  74.9707 121.4930 0015613  25.7610 334.4352 14.92454957676510
SL-4 R/B                
1 39679U 14021B   26102.18275633  .00009767  00000+0  21295-3 0  9998
2 39679  51.6066 173.7356 0093460 225.3667 133.9669 15.40412265661432
ALOS-2                  
1 39766U 14029A   26101.45314147  .00000189  00000+0  32249-4 0  9997
2 39766  97.9190 199.5736 0001834  90.5580 269.5842 14.79470532641718
YAOGAN-29               
1 41038U 15069A   26102.32771171  .00000422  00000+0  58543-4 0  9993
2 41038  98.0102 130.8409 0000714 159.0145 201.1098 14.83033886560860
ASTRO-H (HITOMI)        
1 41337U 16012A   26102.27788682  .00001877  00000+0  10631-3 0  9993
2 41337  30.9981 139.7566 0009612 308.8935  51.0845 15.10218540557312
